ISS (ZARYA)             
1 25544U 98067A   26030.43514919  .00010482  00000+0  20277-3 0  9992
2 25544  51.6320 261.4611 0011099  45.8639 314.3260 15.48288196550400
CSS (TIANHE)            
1 48274U 21035A   26030.17114424  .00032690  00000+0  37481-3 0  9996
2 48274  41.4674  82.2287 0009086  36.5911 323.5548 15.61350410271590
ISS (NAUKA)             
1 49044U 21066A   26030.04787889  .00010491  00000+0  20300-3 0  9990
2 49044  51.6320 263.3752 0011112  44.5726 315.6154 15.48278961230441
FREGAT DEB              
1 49271U 11037PF  26030.35812723  .00047236  00000+0  83346-1 0  9993
2 49271  51.6476  55.3606 0917570 331.6052  23.7579 12.37309406207948
CSS (WENTIAN)           
1 53239U 22085A   26030.17114424  .00032690  00000+0  37481-3 0  9999
2 53239  41.4674  82.2287 0009086  36.5911 323.5548 15.61350410173846
CSS (MENGTIAN)          
1 54216U 22143A   26030.17114424  .00032690  00000+0  37481-3 0  9990
2 54216  41.4674  82.2287 0009086  36.5911 323.5548 15.61350410158643
PROGRESS-MS 31          
1 64751U 25146A   26030.04787889  .00010491  00000+0  20300-3 0  9995
2 64751  51.6320 263.3752 0011112  44.5726 315.6154 15.48278961  6758
TIANZHOU-9              
1 64786U 25149A   26030.17114424  .00032690  00000+0  37481-3 0  9992
2 64786  41.4674  82.2287 0009086  36.5911 323.5548 15.61350410255307
DRAGON CRS-33           
1 65304U 25186A   26030.04787889  .00010491  00000+0  20300-3 0  9994
2 65304  51.6320 263.3752 0011112  44.5726 315.6154 15.48278961   117
PROGRESS-MS 32          
1 65586U 25204A   26030.04787889  .00010491  00000+0  20300-3 0  9997
2 65586  51.6320 263.3752 0011112  44.5726 315.6154 15.48278961   276
CYGNUS NG-23            
1 65616U 25208A   26030.04787889  .00010491  00000+0  20300-3 0  9995
2 65616  51.6320 263.3752 0011112  44.5726 315.6154 15.48278961   225
DRAGONFLY               
1 65729U 98067XH  26030.50065500  .05364586  12031-4  14528-2 0  9991
2 65729  51.6030 240.6929 0007499 256.7086 103.3099 16.27314818 20908
